DELTA 1 R/B             
1 20323U 89089B   25335.18905988  .00000447  00000+0  11904-3 0  9992
2 20323  97.0760 193.2567 0070649  74.1361 286.7610 14.50557191881456
ARIANE 40 R/B           
1 20443U 90005H   25335.20307897  .00000393  00000+0  13887-3 0  9995
2 20443  98.3259  33.7062 0010955 137.3056 222.8986 14.39784363878634
DELTA 2 R/B(1)          
1 20453U 90008B   25334.72851240  .00038738  00000+0  64683-3 0  9995
2 20453  35.6056  98.0194 0112897  68.6020 292.6715 15.43949878910776
COSMOS 2058             
1 20465U 90010A   25334.96541082  .00004750  00000+0  28815-3 0  9991
2 20465  82.4632 144.6136 0008818 322.4216  37.6396 15.10300869927335
SL-14 R/B               
1 20466U 90010B   25335.14378177  .00000527  00000+0  61161-4 0  9996
2 20466  82.5025 359.9384 0018272 264.1601  95.7531 14.83453924913874
SL-14 R/B               
1 20511U 90018B   25335.26943846  .00000631  00000+0  76373-4 0  9996
2 20511  82.5200 315.0864 0017755  58.9098 301.3855 14.82027400908009
HST                     
1 20580U 90037B   25335.16574123  .00008347  00000+0  29066-3 0  9998
2 20580  28.4702 351.2512 0002118 112.7363 247.3456 15.27796369758224
SL-16 R/B               
1 20625U 90046B   25334.94026936  .00000359  00000+0  20980-3 0  9998
2 20625  70.9973 145.3012 0012053  95.4328 264.8170 14.14996183834425
COSMOS 2084             
1 20663U 90055A   25335.20595051  .00003699  00000+0  27111-3 0  9992
2 20663  62.7910 311.2898 0033537 173.3285 186.8268 15.04902261921490
SL-6 R/B(2)             
1 20666U 90055D   25335.12457566  .00002561  00000+0  20376-3 0  9997
2 20666  62.7832 228.8793 0011710 299.7016  60.2917 15.02991899923375
SL-8 R/B                
1 20775U 90078B   25335.28100401  .00031338  00000+0  97058-3 0  9998
2 20775  82.9048 339.5625 0375788 344.4116  14.5770 14.85206431794679
SL-8 R/B                
1 21088U 91006B   25335.22029196  .00000082  00000+0  66802-4 0  9999
2 21088  82.9428 243.2805 0021610 313.8660 200.1717 13.77488060750515
OKEAN-3                 
1 21397U 91039A   25335.23925829  .00004049  00000+0  29073-3 0  9992
2 21397  82.5182  72.1769 0013394 307.8651  52.1363 15.03999388850235
COSMOS 2151             
1 21422U 91042A   25335.28017663  .00001745  00000+0  13940-3 0  9994
2 21422  82.4965 178.5457 0013509  37.2268 322.9889 14.99620518848444
SL-14 R/B               
1 21423U 91042B   25335.03171532  .00000525  00000+0  63568-4 0  9991
2 21423  82.4917 312.7033 0016413 200.3816 159.6745 14.81721079838465
ERS-1                   
1 21574U 91050A   25335.05834119  .00000379  00000+0  13605-3 0  9999
2 21574  98.7912 345.8209 0032756 133.6982 226.6927 14.39350119801541
ARIANE 40 R/B           
1 21610U 91050F   25335.13571210  .00000398  00000+0  13195-3 0  9994
2 21610  98.2182  25.9842 0003492  32.8397 327.3010 14.42797309804781
INTERCOSMOS 25          
1 21819U 91086A   25335.15939435  .00002472  00000+0  48950-3 0  9995
2 21819  82.6067   9.5790 1487202 329.3778  22.8055 12.11661350484751
SL-8 R/B                
1 21876U 92008B   25335.11796976  .00000168  00000+0  15712-3 0  9990
2 21876  82.9264 341.0919 0035779  51.5780  13.2424 13.75955133695863
SL-8 R/B                
1 21938U 92020B   25335.22179255  .00000064  00000+0  51068-4 0  9990
2 21938  82.9314 226.8695 0028185 210.7636 305.7825 13.75524502687598
USA 81                  
1 21949U 92023A   25335.08799433  .00000202  00000+0  67585-4 0  9990
2 21949  85.0089 188.2955 0001938  63.4077 296.7314 14.32320134 80679
COSMOS 2219             
1 22219U 92076A   25335.12336441 -.00000259  00000+0 -11119-3 0  9995
2 22219  71.0596 224.1148 0018779 342.9390  17.1099 14.14064591704441
SL-16 R/B               
1 22220U 92076B   25335.28009119  .00000146  00000+0  96891-4 0  9997
2 22220  71.0017  35.6715 0015071 249.2371 172.9701 14.16840569707897
COSMOS 2221             
1 22236U 92080A   25335.17743170  .00002461  00000+0  21848-3 0  9990
2 22236  82.5055  13.3921 0015223 157.9946 202.1933 14.95691061766062
SL-16 R/B               
1 22285U 92093B   25335.15401146 -.00000204  00000+0 -80075-4 0  9993
2 22285  71.0203 211.1158 0001941 107.3326 252.8009 14.15425918699213
COSMOS 2228             
1 22286U 92094A   25335.25791588  .00002999  00000+0  26026-3 0  9994
2 22286  82.5173 331.5214 0016274 273.9094  86.0268 14.96642317761334
SL-16 R/B               
1 22566U 93016B   25335.25529583 -.00000149  00000+0 -52068-4 0  9997
2 22566  71.0093  61.9232 0007936 119.4400 240.7516 14.15289012688246
COSMOS 2242             
1 22626U 93024A   25335.13176399  .00002220  00000+0  19521-3 0  9999
2 22626  82.5196   0.9403 0014799 277.4985  82.4555 14.96029169765654
SL-16 R/B               
1 22803U 93059B   25335.08608322  .00000173  00000+0  10952-3 0  9998
2 22803  70.9894 219.0598 0017248 352.8673   7.2202 14.17208552665560
ARIANE 40 R/B           
1 22830U 93061H   25335.16552739  .00000281  00000+0  11899-3 0  9991
2 22830  98.5092  40.9054 0010229 210.8584 149.2000 14.32788937679992
COSMOS 2278             
1 23087U 94023A   25335.21989095  .00000015  00000+0  32406-4 0  9993
2 23087  71.0555  21.1121 0008988 196.3889 163.6945 14.14350677630887
SL-16 R/B               
1 23088U 94023B   25335.24064176  .00000361  00000+0  21120-3 0  9995
2 23088  70.9999 277.6336 0001066  85.1897 274.9348 14.14996017632168
SL-16 R/B               
1 23343U 94074B   25335.10890211  .00000579  00000+0  84536-4 0  9999
2 23343  97.7216   4.8752 0006707 170.0810 255.3412 14.79267941672672
SL-16 R/B               
1 23405U 94077B   25335.11927659 -.00000158  00000+0 -56464-4 0  9993
2 23405  70.9808 199.8595 0004572 293.3518  66.7123 14.15545715602284
ARIANE 40+ R/B          
1 23561U 95021B   25335.19078485  .00000361  00000+0  12913-3 0  9992
2 23561  98.4666  42.9184 0007807  80.1729 295.0778 14.39680825605077
SL-16 R/B               
1 23705U 95058B   25335.26274339  .00000273  00000+0  16377-3 0  9996
2 23705  71.0223  26.9009 0014882 269.6322  90.3096 14.15476731553923
SL-16 R/B               
1 24298U 96051B   25335.22789217 -.00000008  00000+0  22421-4 0  9995
2 24298  70.7604  23.6513 0019068 275.5780  84.3165 14.12394667507742
ORBVIEW 2 (SEASTAR)     
1 24883U 97037A   25335.06525712  .00000354  00000+0  13947-3 0  9995
2 24883  98.8452 131.8462 0002246  16.8488 343.2771 14.35402454494328
SL-16 R/B               
1 25400U 98043G   25335.15104368  .00000094  00000+0  58474-4 0  9995
2 25400  98.8107 282.9052 0008952 304.2640  55.7691 14.26020961424944
SL-16 R/B               
1 25407U 98045B   25335.25139014  .00000205  00000+0  12780-3 0  9994
2 25407  71.0126  28.5867 0007608 193.8303 166.2613 14.16174255413167
ISS (ZARYA)             
1 25544U 98067A   25335.06016206  .00009187  00000+0  17339-3 0  9999
2 25544  51.6309 200.2993 0003638 188.9407 171.1518 15.49217814541048
CZ-4B R/B               
1 25732U 99025C   25335.10717095  .00000108  00000+0  73338-4 0  9998
2 25732  98.6786  16.6465 0036068 268.3730 145.9381 14.18239029374199
OKEAN-O                 
1 25860U 99039A   25335.16202484  .00000865  00000+0  12091-3 0  9990
2 25860  97.9619  30.9631 0000879  75.1222 285.0087 14.80128829419815
SL-16 R/B               
1 25861U 99039B   25335.16824536  .00000724  00000+0  99067-4 0  9992
2 25861  98.0143  29.3180 0014091 212.8563 147.1774 14.81558968422277
DELTA 2 R/B             
1 25876U 99041E   25335.24196474  .00001384  00000+0  26255-3 0  9994
2 25876  51.7621 334.3426 0504851  57.8834 307.0072 14.11352739349129
HELIOS 1B               
1 25977U 99064A   25335.23142945  .00002298  00000+0  26185-3 0  9991
2 25977  98.1755 229.5561 0002240  58.1488 301.9945 14.87204772670623
TERRA                   
1 25994U 99068A   25335.22935036  .00000625  00000+0  13675-3 0  9996
2 25994  97.9765  27.3351 0003348 121.1346 308.6954 14.60931151380705
SL-16 R/B               
1 26070U 00006B   25335.24128025  .00000351  00000+0  20239-3 0  9990
2 26070  71.0026 304.8344 0017807 324.7447  35.2497 14.15805923334629
TITAN 4B R/B            
1 26474U 00047B   25335.20762204  .00004467  00000+0  28784-3 0  9997
2 26474  67.9897 317.2406 0039807 158.1708 202.1149 15.08646504378052
ENVISAT                 
1 27386U 02009A   25335.31380465  .00000171  00000+0  69302-4 0  9997
2 27386  98.3583 286.3451 0001193  82.0023  84.4534 14.38992358245025
IDEFIX & ARIANE 42P R/B 
1 27422U 02021B   25335.25556810  .00000379  00000+0  16066-3 0  9992
2 27422  98.5770 270.0965 0012778 114.6252 245.6263 14.30936539229947
AQUA                    
1 27424U 02022A   25335.33919074  .00001349  00000+0  28037-3 0  9998
2 27424  98.4021 296.0343 0000693 104.6024  21.8751 14.61764550254360
CZ-4B R/B               
1 27432U 02024C   25335.18801920  .00000078  00000+0  63622-4 0  9990
2 27432  98.9018  23.9991 0049276 303.3574 125.0569 14.14523976215313
MIDORI II (ADEOS-II)    
1 27597U 02056A   25335.16393249  .00000318  00000+0  14285-3 0  9992
2 27597  98.7618 288.0605 0000443  12.1656 347.9536 14.29192817196223
H-2A R/B                
1 27601U 02056E   25334.88555021  .00000350  00000+0  13707-3 0  9998
2 27601  98.3050 294.1157 0071484  95.8956 323.3648 14.33660970199959
CZ-4B R/B               
1 28059U 03049C   25334.97288342  .00000452  00000+0  11531-3 0  9994
2 28059  98.6780 321.0930 0048366 171.6252 188.5762 14.54892048172241
CZ-2C R/B               
1 28222U 04012C   25335.22027208  .00040910  00000+0  61978-3 0  9991
2 28222  97.7451  26.8994 0017233 315.1890  44.7970 15.54371417188930
SL-16 R/B               
1 28353U 04021B   25335.30738033 -.00000070  00000+0 -11653-4 0  9991
2 28353  71.0022  78.9550 0005873 214.6880 145.3860 14.14582528108928
CZ-4B R/B               
1 28415U 04035C   25335.09532527  .00009473  00000+0  35383-3 0  9990
2 28415  97.3630   5.5968 0032384 320.6425  39.2460 15.27086654164857
